ORBCOMM FM24            
1 25478U 98053D   24348.49559995  .00002019  00000+0  71972-3 0  9997
2 25478  45.0085  68.9712 0001788 292.9727  67.0932 14.37163065370727
ORBCOMM FM25            
1 25479U 98053E   24348.67281739  .00002199  00000+0  77995-3 0  9996
2 25479  45.0075  66.3864 0002479   2.1734 357.9124 14.37149917371044
ORBCOMM FM26            
1 25480U 98053F   24348.70967767  .00001839  00000+0  67065-3 0  9991
2 25480  45.0074  61.4220 0003794  46.8587 313.2578 14.36352947371078
ORBCOMM FM27            
1 25481U 98053G   24348.59291709  .00002103  00000+0  74793-3 0  9996
2 25481  45.0060  67.0151 0002178 249.4182 110.6432 14.37147324370963
ORBCOMM FM28            
1 25482U 98053H   24348.52221563  .00002022  00000+0  71681-3 0  9994
2 25482  45.0065   5.1884 0001966  65.2558 294.8494 14.37441874371635
ORBCOMM FM30            
1 25980U 99065A   24348.44165966  .00001343  00000+0  50118-3 0  9993
2 25980  45.0308 248.4263 0005494 152.8465 207.2671 14.36509240307737
ORBCOMM FM31            
1 25981U 99065B   24348.40949549  .00001527  00000+0  56351-3 0  9996
2 25981  45.0218 242.1407 0002845 179.9559 180.1289 14.36479670307287
ORBCOMM FM32            
1 25982U 99065C   24348.74911394  .00001524  00000+0  57355-3 0  9993
2 25982  45.0149 255.8567 0004677 183.7731 176.3082 14.35514528308076
